{
"type": "FeatureCollection",
"name": "Morphologique",
"crs": { "type": "name", "properties": { "name": "urn:ogc:def:crs:OGC:1.3:CRS84" } },
"features": [
{ "type": "Feature", "properties": { "OBJECTID": 4695, "id_glacier_wgi": "SU4Y03002020", "nom_glacier": "20", "latitude": 76.0, "longitude": 62.0, "surf_totale_km2": 11130.1, "surf_dans_etat": null, "long_moy_km": null, "num_basins": null, "alt_moy_m": null, "alt_max_m": null, "alt_min_m": null, "alt_moy_acc_m": null, "alt_ligne_eq_m": null, "alt_moy_abl_m": null, "orient_acc": " N", "orient_abl": " N", "code_type_glacier": 3, "code_forme": 1, "code_front": 0, "code_act_langue": 0, "classe_var_surf": 1, "code_var_ligne_eq": null, "type_glacier": "Calotte glaciaire", "forme_glacier": "Bassins composés", "front_glacier": "Divers", "act_langue": "Incertain", "var_ligne_eq": "Non renseigné", "region_glaciaire": "Archipels d'Arctique", "alt_max_m_num": null, "alt_moy_m_num": null, "alt_moy_acc_m_num": null, "alt_ligne_eq_m_num": null, "long_moy_km_num": null, "num_basins_num": null, "surf_dans_etat_num": null, "alt_min_m_num": null, "amplitude_alt_num": null, "Classe_Taille": "Grand", "orient_Grp": "Nord", "score_surf": 0, "score_altmin": null, "score_orient": 0, "score_varsurf": 0, "score_langue": 1, "ICS": null, "sensibilite_cat": "Non classé", "surf_totale_km2_norm": 1.0, "long_moy_km_num_norm": null, "alt_moy_m_num_norm": null, "amplitude_alt_num_norm": null, "alt_min_m_num_norm": null, "alt_ligne_eq_m_num_norm": null, "alt_max_m_num_norm": null, "latitude_norm": 0.71599098858625443, "orient_norm": 0.0, "varsurf_norm": 0.0, "langue_norm": 0.5, "Sc_Morpho": 1.0, "Sc_Topo": null, "Sc_Clim": 0.71599098858625443, "Sc_Dyn": 0.25, "profil_sensi": "Morphologique sensible" }, "geometry": { "type": "Point", "coordinates": [ 62.0, 76.0 ] } },
{ "type": "Feature", "properties": { "OBJECTID": 7692, "id_glacier_wgi": "IS4V00000001", "nom_glacier": null, "latitude": 64.5, "longitude": -17.0, "surf_totale_km2": 8086.0, "surf_dans_etat": null, "long_moy_km": null, "num_basins": null, "alt_moy_m": null, "alt_max_m": "2100", "alt_min_m": "0", "alt_moy_acc_m": null, "alt_ligne_eq_m": null, "alt_moy_abl_m": null, "orient_acc": null, "orient_abl": null, "code_type_glacier": null, "code_forme": null, "code_front": null, "code_act_langue": null, "classe_var_surf": null, "code_var_ligne_eq": null, "type_glacier": "Non renseigné", "forme_glacier": "Non renseigné", "front_glacier": "Non renseigné", "act_langue": "Non renseigné", "var_ligne_eq": "Non renseigné", "region_glaciaire": "Scandinavie", "alt_max_m_num": 2100.0, "alt_moy_m_num": null, "alt_moy_acc_m_num": null, "alt_ligne_eq_m_num": null, "long_moy_km_num": null, "num_basins_num": null, "surf_dans_etat_num": null, "alt_min_m_num": 0.0, "amplitude_alt_num": 2100.0, "Classe_Taille": "Grand", "orient_Grp": "Nord", "score_surf": 0, "score_altmin": 3, "score_orient": null, "score_varsurf": null, "score_langue": 1, "ICS": null, "sensibilite_cat": "Non classé", "surf_totale_km2_norm": 0.72649816847842197, "long_moy_km_num_norm": null, "alt_moy_m_num_norm": null, "amplitude_alt_num_norm": 0.58265960412601059, "alt_min_m_num_norm": 0.0, "alt_ligne_eq_m_num_norm": null, "alt_max_m_num_norm": 0.43423799582463468, "latitude_norm": 0.47041928698790292, "orient_norm": null, "varsurf_norm": null, "langue_norm": 0.5, "Sc_Morpho": 0.65457888630221628, "Sc_Topo": 0.21711899791231734, "Sc_Clim": 0.47041928698790292, "Sc_Dyn": 0.5, "profil_sensi": "Morphologique sensible" }, "geometry": { "type": "Point", "coordinates": [ -17.0, 64.5 ] } }
]
}
